HIMAWARI-8              
1 40267U 14060A   24116.72053800 -.00000260  00000+0  00000+0 0  9996
2 40267   0.0439 126.8090 0001103 275.8464 211.6299  1.00272349 35011
